[{"OBJECT_NAME":"STARLINK-1067","OBJECT_ID":"2019-074BL","EPOCH":"2026-03-09T15:07:27.812064","MEAN_MOTION":15.57477348,"ECCENTRICITY":0.0003561,"INCLINATION":53.0519,"RA_OF_ASC_NODE":204.4622,"ARG_OF_PERICENTER":333.1466,"MEAN_ANOMALY":26.936,"EPHEMERIS_TYPE":0,"CLASSIFICATION_TYPE":"U","NORAD_CAT_ID":44771,"ELEMENT_SET_NO":999,"REV_AT_EPOCH":34850,"BSTAR":0.00090701,"MEAN_MOTION_DOT":0.00067959,"MEAN_MOTION_DDOT":0},{"OBJECT_NAME":"NAPA-1","OBJECT_ID":"2020-061BA","EPOCH":"2026-03-09T22:41:35.210688","MEAN_MOTION":15.57045946,"ECCENTRICITY":0.00010032,"INCLINATION":97.2581,"RA_OF_ASC_NODE":140.6709,"ARG_OF_PERICENTER":121.0916,"MEAN_ANOMALY":239.0438,"EPHEMERIS_TYPE":0,"CLASSIFICATION_TYPE":"U","NORAD_CAT_ID":46320,"ELEMENT_SET_NO":999,"REV_AT_EPOCH":30624,"BSTAR":0.00073314827,"MEAN_MOTION_DOT":0.00053161,"MEAN_MOTION_DDOT":0}]
